sat44906
1 44906U 19096B   20046.98267185 -.00014928  00000-0 -10838+0 0  9991
2 44906  82.5198  78.7898 0015088 181.5468 178.9667 12.42619348  6325
